#dP2019  9 15  0  0  0.00000000      96 __u+U ITR00 FIT  IAC
## 2071      0.00000000   900.00000000 58741 0.0000000000000
+  116   C01C02C03C04C06C07C08C09C10C11C12C13C14C16C19C20C21
+        C22C23C24C25C26C27C28C29C30C32C33C34C35C36C37E01E02
+        E03E04E05E07E08E09E11E12E13E14E15E18E19E21E24E25E26
+        E27E30E31E33E36G01G02G03G04G05G06G07G08G09G10G11G12
+        G13G14G15G16G17G18G19G20G21G22G23G24G25G26G27G28G29
+        G30G31G32J01J02J03J07R01R02R03R05R06R07R08R09R11R12
+        R13R14R15R16R17R18R19R20R21R22R23R24R26R27  0  0  0
++        13 13 13 13  9  9  8  8  9  8  8  8  8  9  8  8  8
++         8  9  8  9  8  8  8  8  8  8  8  9  9  9  9  5  5
++         4  5  5  5  5  5  5  5  5  5  5  5  5  5  5  4  5
++         5  5  5  5  5  3  3  3  4  3  3  3  4  3  3  3  3
++         3  3  3  3  3  3  3  3  3  3  3  3  3  3  4  3  4
++         3  3  3  9  9  9 13  6  5  5  5 11  5  5  5  5  6
++         6  6  5  6  5  5  6  6  5  6  5  6  8  8  0  0  0
%c M  cc GPS ccc cccc cccc cccc cccc ccccc ccccc ccccc ccccc
%c cc cc ccc ccc cccc cccc cccc cccc ccccc ccccc ccccc ccccc
%f  0.0000000  0.000000000  0.00000000000  0.000000000000000
%f  0.0000000  0.000000000  0.00000000000  0.000000000000000
%i    0    0    0    0      0      0      0      0         0
%i    0    0    0    0      0      0      0      0         0
/* INFORMATION & ANALYSIS CENTER (IAC)            RAPID DATA
/* S/V CLOCKS ARE ALIGNED TO GNSS TIME                      
/* G:C1WC2W R:C1PC2P E:C1XC5X E:C2IC6I J:C1CC2S             
/* PCV:IGS14_2062 OL/AL:FES2004  NONE     YN ORB:CoN CLK:CoN
*  2019 09 15  9  0  0.00000000
PC01 -32339.304191  27049.662289   -986.736023   -108.005456
PC02   4329.572238  41924.391920    743.362691    869.589748
PC03 -14812.352716  39502.791558   -115.575234     52.836558
PC04 -39658.787848  14313.578941   -547.311634   -363.408926
PC06  -6395.073097  29505.099651  29930.628233    412.436514
PC07 -21576.220417  24147.569298 -27052.163953   -131.599806
PC08 -19401.747205  37138.702809  -2609.032221     -4.533096
PC09   5255.633480  36889.137394  20296.166242    -31.662334
PC10  -6773.873560  26284.165487 -32159.300236   -178.098272
PC11 -14134.972466 -18840.516141 -14967.713078    111.856096
PC12   1616.177273 -25667.992882  11004.108023   -245.856118
PC13  -9862.680955  39326.540961  11104.337809   -895.754504
PC14 -15242.012519 -16558.938178 -16413.422469    506.579779
PC16  -2315.371910  31466.635214  28089.919908   -878.551061
PC19  26885.815607   7399.684328   -795.555961    198.458899
PC20  16748.431487  16159.560511  15388.789834    -66.257149
PC21   3603.487419 -15566.214865 -22866.063353    310.747034
PC22  21493.167970  -5797.233392 -16807.865950   -104.308021
PC23 -22547.085469  15642.615900   5110.854894   -945.516881
PC24  -5740.470342 -15988.397941  22147.765287   -902.133177
PC25 -20196.333939    541.476102  19247.349397   -349.070707
PC26  10828.438481 -22540.944073  12414.919579    387.674233
PC27  -2235.038995  25641.494364 -10814.961419    189.571365
PC28 -13211.720030  11043.240647 -21956.102477    184.120384
PC29  16812.238551   9257.943672  20249.459951    118.719517
PC30  10870.231329  24882.081637   6468.850057    192.731980
PC32  -3518.161334  15611.124981  22871.112037   -927.636180
PC33 -26935.503261  -7297.663255    766.144675   -387.355579
PC34 -10949.258086 -24758.395152  -6744.048076    -78.115706
PC35  12927.407577 -11398.084442  21943.038564   -341.099841
PC36  20116.744430     45.237377 -19301.345796   -839.680582
PC37 -11789.997597  22270.476810 -11957.533870 999999.999999
PE01   -250.236116  17063.386434 -24178.373636   -690.372299
PE02    160.138095 -17049.164998  24203.507597     79.304143
PE03  -9583.201998 -23055.948704 -15911.514397   -211.052583
PE04  23106.734381  18442.346044  -1425.391993   -365.817462
PE05   9707.145254 -14190.118180 -24094.432800   -448.458295
PE07 -23213.893710  -2922.070404  18145.667123   -266.261162
PE08 -23306.622616 -18193.786077   1578.738233   6291.712640
PE09  23127.240378   2771.897388 -18250.684131   6315.733076
PE11  16902.639714  -6398.046378  23430.657977   5590.595158
PE12  11866.283708  16135.278805  21795.071732   6197.413354
PE13 -16803.455611   6331.696909 -23530.125122    392.894839
PE14  11488.732356  24860.720119  -1607.183977   -720.593600
PE15 -12037.569866 -15726.513433 -21998.297534    895.350668
PE18 -20789.836689 -17284.329212 -13210.318836   -814.899784
PE19   7765.176406  22644.644510  17413.149959     -3.952755
PE21 -20296.188444  16751.890316 -13554.836156   -554.961785
PE24  28468.704813  -6492.838589  -4889.945251   5870.163746
PE25  20334.700344 -16737.190438  13514.301368   1677.964620
PE26 -11930.993297  24704.504660 -11099.476407   4105.167224
PE27 -28424.780823   6541.872930   5068.517339    386.937802
PE30 -19888.119337  -7562.607847  20576.262350   4545.366431
PE31  19845.144568   7460.014486 -20637.456410   -468.452872
PE33    209.919491  28612.215234   7576.612783   -470.149847
PE36  11726.583759 -24737.636436  11262.756199    661.864329
PG01  14136.527291 -22141.090833   2282.577695   -129.446636
PG02 -17384.014864   6660.412362 -18277.143441   -305.442030
PG03  13643.209845 -13183.279906 -18606.494278    -11.196443
PG04  19997.604680   8650.440928  15257.441823     71.986387
PG05 -26402.950924   2889.919626   2293.452235     -1.438531
PG06 -11506.090447  -9722.248127 -21832.806126    -58.064307
PG07   3299.310776 -23262.323511  12184.536304   -106.746393
PG08  11642.829777  -9617.274465  21869.509794     -6.535440
PG09  -5460.553662 -23548.612388 -11039.482193    -31.727056
PG10  16593.517758  11665.011629  17320.295929    -54.477804
PG11   9095.206636 -22699.182201  10195.337691   -506.544344
PG12 -17885.987606  10367.274311 -16793.156264    203.824250
PG13 -16234.226169  -1127.054027  20890.562302    -44.243924
PG14  17600.748840  14999.909814 -12900.460842    -61.240037
PG15 -10896.040369  11602.832770  20951.673221   -286.843260
PG16  26744.473881   1024.689532   1178.771607    -74.287237
PG17 -15043.355494 -21275.752887  -4949.240008    125.893941
PG18  16585.112753 -17724.227019  10150.417544     85.837295
PG19 -16861.176984 -16813.514116 -12032.085715   -267.012686
PG20   6881.618767  14718.322577  20926.763980    526.871950
PG21   1963.822789  22019.976530  15644.787769   -118.554721
PG22  20100.994363 -11492.378051 -12709.541121   -755.003604
PG23   4685.912788 -17832.582865 -18633.616572   -166.781113
PG24 -14467.317435  21424.724954   5078.200052     -2.180227
PG25  -2976.763357  15070.079193 -21857.152845    -12.236698
PG26  24629.765317   5139.692820  -8813.303278     39.376344
PG27  17705.012024   4065.769931  19370.011441    -56.225356
PG28 -15526.443744 -13014.484960  17726.798907    762.150382
PG29   2063.168629  22972.458222 -13184.350356     97.356446
PG30  -5717.029259 -17514.700796  19096.169914    -41.108641
PG31  13154.399097   7733.125550 -21744.648601     10.250323
PG32  16544.180370  20250.818368  -4956.984684     57.514640
PJ01 -27355.223188  23215.248097  27124.319421   -347.583838
PJ02 -35779.398765  21770.884980   -450.694400     -4.035988
PJ03 -20412.840065  23131.830339 -24155.819787     -1.987227
PJ07 -25410.844812  33644.683810     47.992289     -0.081772
PR01  22249.087070   4960.819236 -11432.903374     49.766173
PR02   7850.137336  -8077.311632 -22854.516728    388.171800
PR03  -9788.805958 -14881.736698 -18200.395912      1.538737
PR05 -21179.393723  -3800.083237  13689.701098     35.736266
PR06  -6809.476087   8957.634330  22878.364264    161.942850
PR07  10297.258628  15009.958530  17920.684076    -26.661421
PR08  21639.385486  13108.109458   3348.524086     15.666639
PR09 -15865.189809  16567.385545 -11215.811469     90.712687
PR11  14211.613766   2960.200050 -20938.418399    -79.430576
PR12  22083.050576  -9009.986785  -9033.236883     61.780054
PR13  17348.560898 -16377.634139   9003.116586    -28.424861
PR14   2708.743823 -13779.845959  21308.145482     43.012798
PR15 -13487.220998  -3471.027226  21399.238836    103.978852
PR16 -21936.342803   9403.786987   8829.380581      4.361551
PR17  -1852.581831 -25394.506363  -1896.986811    260.377017
PR18  -8407.321395 -16802.784610 -17218.043875      7.524115
PR19 -10419.984165    318.607840 -23284.532424    -53.847074
PR20  -6498.277500  19513.894389 -15110.287384   -390.501690
PR21   2157.501899  25259.076677   2655.754755    -72.534387
PR22   9039.323017  14404.163006  19059.437229   -175.532222
PR23   9883.412656  -6914.006369  22465.612241    253.998780
PR24   5360.292753 -20985.276005  13440.848070   -184.750012
PR26  -7304.209140  17011.787902 -17522.384677     -4.896737
PR27  -9164.367300  -6810.504496  22816.773088    122.115071
EOF
